LUCH 5B                 
1 38977U 12061A   18011.80841705 -.00000137  00000-0  00000-0 0  9990
2 38977   3.9574  73.1666 0004747 229.7038  83.0217  1.00269384 19303
YAMAL 300K              
1 38978U 12061B   18013.55946734  .00000071  00000-0  00000+0 0  9998
2 38978   0.0202  41.0935 0001145 201.5279 254.7307  1.00270628 19026
STAR ONE C3             
1 38991U 12062A   18012.84212870 -.00000249  00000-0  00000-0 0  9991
2 38991   0.0144 326.9240 0001917 321.8842  51.6268  1.00272288 18998
EUTELSAT 21B            
1 38992U 12062B   18012.62870781  .00000129  00000-0  00000-0 0  9995
2 38992   0.0632  21.7244 0002514 274.8822  63.3504  1.00272405 19001
ECHOSTAR 16             
1 39008U 12065A   18011.86160942 -.00000284  00000-0  00000-0 0  9996
2 39008   0.0152  52.5508 0001878 244.0834  63.3291  1.00271616 18775
CHINASAT 12 (ZX 12)     
1 39017U 12067A   18013.17268170 -.00000207  00000-0  00000+0 0  9990
2 39017   0.0217  81.0504 0002578 219.0517 322.1500  1.00272095 18858
EUTELSAT 70B            
1 39020U 12069A   18012.49312830 -.00000045  00000-0  00000+0 0  9993
2 39020   0.0589  26.1068 0003113 257.9284  75.9130  1.00272696 18755
YAMAL 402               
1 39022U 12070A   18012.44493727  .00000084  00000-0  10000-3 0  9994
2 39022   0.0181  75.4375 0003035 228.4533  23.0661  1.00274147 18730
SKYNET 5D               
1 39034U 12075A   18013.14770775  .00000099  00000-0  00000+0 0  9992
2 39034   0.0687   4.3144 0004008 284.1135 290.0123  1.00271743 18667
MEXSAT 3                
1 39035U 12075B   18012.00920999 -.00000027  00000-0  00000-0 0  9995
2 39035   0.0165  60.1145 0002264 233.6171  66.2447  1.00271210 18617
TDRS 11                 
1 39070U 13004A   18012.07787905  .00000097  00000-0  00000-0 0  9998
2 39070   5.1151 328.5954 0011565 298.7838  61.2584  1.00263459 15836
AMAZONAS 3              
1 39078U 13006A   18012.85736493 -.00000283  00000-0  00000+0 0  9997
2 39078   0.0138 250.2176 0004251   4.4252 105.3103  1.00269692 18112
AZERSPACE 1             
1 39079U 13006B   18012.56113060  .00000132  00000-0  00000+0 0  9997
2 39079   0.0209  39.1251 0002058 288.5445  32.3178  1.00270877 18075
EUTELSAT 117 WEST A     
1 39122U 13012A   18012.01461786 -.00000015  00000-0  00000-0 0  9996
2 39122   0.0306  36.3312 0003169 264.5876  59.0501  1.00271221 17603
ANIK G1                 
1 39127U 13014A   18012.98569032 -.00000074  00000-0  00000+0 0  9996
2 39127   0.0185 312.5582 0002857 332.4339  74.9592  1.00271487 17401
CHINASAT 11 (ZX 11)     
1 39157U 13020A   18011.85184950 -.00000293  00000-0  00000-0 0  9997
2 39157   0.0203  81.0683 0004130 208.2975 226.5606  1.00268285 17286
EUTELSAT 7B             
1 39163U 13022A   18011.67186221  .00000046  00000-0  00000-0 0  9994
2 39163   0.0491  46.5828 0005141 291.2166  22.1607  1.00273062 17129
SES-6                   
1 39172U 13026A   18011.80342932 -.00000263  00000-0  00000-0 0  9998
2 39172   0.0417 312.7899 0001474 334.7099  72.4667  1.00272035 16870
IRNSS-1A                
1 39199U 13034A   18011.84705065  .00000078  00000-0  00000+0 0  9992
2 39199  29.1691 111.4483 0020906 183.4401 176.4767  1.00278639 16776
ALPHASAT                
1 39215U 13038A   18012.69568673  .00000135  00000-0  00000-0 0  9996
2 39215   1.8497  27.3560 0002125 270.5484  89.4781  1.00271158 13190
INSAT-3D                
1 39216U 13038B   18012.46119063 -.00000157  00000-0  00000-0 0  9992
2 39216   0.1452 271.6374 0001411  44.0447  44.2895  1.00270677 16262
EUTELSAT 25B            
1 39233U 13044A   18012.61790227  .00000142  00000-0  00000-0 0  9995
2 39233   0.0449   6.6502 0001702 305.3648  47.9534  1.00270460 15780
GSAT-7                  
1 39234U 13044B   18012.48348848 -.00000078  00000-0  00000-0 0  9998
2 39234   0.0907 266.8678 0005199  28.0580  65.0028  1.00272010 14503
AMOS-4                  
1 39237U 13045A   18012.50830569  .00000006  00000-0  00000+0 0  9990
2 39237   0.0035  56.1123 0002525 263.6575  40.2116  1.00271101 16037
ASTRA 2E                
1 39285U 13056A   18012.60950094  .00000149  00000-0  00000-0 0  9991
2 39285   0.0596  35.8115 0002747 265.9247  58.2198  1.00270005 15618
SIRIUS FM-6             
1 39360U 13058A   18013.01028572 -.00000017  00000-0  00000+0 0  9994
2 39360   0.0091 319.1595 0001238 212.1760 188.6498  1.00272030 15497
RADUGA-1M 3             
1 39375U 13062A   18012.89698674 -.00000039  00000-0  00000-0 0  9991
2 39375   0.0351 175.0539 0001742 154.3785 175.7938  1.00272580 15275
SES-8                   
1 39460U 13071A   18012.42535909 -.00000271  00000-0  00000-0 0  9994
2 39460   0.0525 265.5368 0000638  61.3591  33.0830  1.00270911 13656
INMARSAT 5-F1           
1 39476U 13073A   18012.51511639  .00000027  00000-0  00000-0 0  9995
2 39476   0.0186  41.7995 0000216 301.2941  16.8885  1.00271864 14741
TKSAT-1 (TUPAC KATARI)  
1 39481U 13075A   18012.84702080 -.00000195  00000-0  00000+0 0  9997
2 39481   0.0432 128.9765 0002147 185.0873  15.9192  1.00273592 14988
EXPRESS-AM5             
1 39487U 13077A   18010.42410425 -.00000285  00000-0  00000+0 0  9996
2 39487   0.0529 218.6821 0000530 228.3470 315.5515  1.00272210 15490
GSAT-14                 
1 39498U 14001A   18012.48353916 -.00000078  00000-0  00000-0 0  9996
2 39498   0.0294 132.4523 0001204 205.4049  22.1203  1.00272200 14594
THAICOM 6               
1 39500U 14002A   18012.89698674 -.00000122  00000-0  00000-0 0  9999
2 39500   0.0897 115.9258 0000532  66.2656 331.5220  1.00271279 14599
TDRS 12                 
1 39504U 14004A   18012.73552208 -.00000265  00000-0  00000-0 0  9998
2 39504   5.7449 335.9650 0005221 335.5849  24.5202  1.00268818 13429
ABS-2                   
1 39508U 14006A   18012.48090675 -.00000087  00000-0  00000+0 0  9992
2 39508   0.0383 329.2531 0003854 348.0110  42.6888  1.00271467 14462
ATHENA-FIDUS            
1 39509U 14006B   18012.58378747  .00000153  00000-0  00000-0 0  9997
2 39509   0.0174  50.8315 0000823 257.3391  51.8048  1.00274554 14228
TURKSAT 4A              
1 39522U 14007A   18012.57192561  .00000145  00000-0  00000+0 0  9990
2 39522   0.0761 270.1771 0004731  15.3547  74.3987  1.00275861 14353
EXPRESS-AT1             
1 39612U 14010A   18012.90442762  .00000078  00000-0  00000-0 0  9998
2 39612   0.0492 215.2455 0000169 142.6917 135.9692  1.00272816 14195
EXPRESS-AT2             
1 39613U 14010B   18010.85779193 -.00000285  00000-0  00000+0 0  9992
2 39613   0.0564 221.0253 0000335 229.5005 108.4256  1.00271627 14005
AMAZONAS 4A             
1 39616U 14011A   18011.89615861 -.00000255  00000-0  00000+0 0  9999
2 39616   0.0968  80.5551 0003120 250.5475  28.8626  1.00269380 14004
ASTRA 5B                
1 39617U 14011B   18013.12927497  .00000155  00000-0  00000+0 0  9997
2 39617   0.0526 312.8791 0002534 321.4559 276.2566  1.00273201 14011
IRNSS-1B                
1 39635U 14017A   18011.34933571  .00000073  00000-0  00000+0 0  9994
2 39635  28.6957 291.6038 0017993 186.8530 173.1640  1.00274770 13930
LUCH 5V                 
1 39727U 14023A   18012.95666501 -.00000266  00000-0  00000-0 0  9993
2 39727   2.2899 299.0642 0003921  18.8325 233.6056  1.00270114531666
KAZSAT-3                
1 39728U 14023B   18011.52923557  .00000058  00000-0  00000-0 0  9991
2 39728   0.0140  49.8280 0000420 315.5656 354.5893  1.00272087 11583
EUTELSAT 3B             
1 39773U 14030A   18013.29223245  .00000020  00000-0  00000+0 0  9990
2 39773   0.0667  39.3107 0002816 225.8315 315.8561  1.00273083 13362
ASIASAT 8               
1 40107U 14046A   18012.69926399 -.00000034  00000-0  00000-0 0  9990
2 40107   0.0170   3.1034 0001830 272.8758  83.9828  1.00271049 71295
ASIASAT 6               
1 40141U 14052A   18012.82523852 -.00000363  00000-0  00000-0 0  9992
2 40141   0.0498 277.0991 0000683  90.9373 161.1871  1.00270554 12200
OPTUS 10                
1 40146U 14054A   18012.23419041 -.00000076  00000-0  00000+0 0  9998
2 40146   0.0293  93.1248 0001513 203.7488  63.0936  1.00270949 12260
MEASAT-3B               
1 40147U 14054B   18011.43769330 -.00000245  00000-0  00000-0 0  9998
2 40147   0.0537 224.4798 0002557  37.9622  97.5111  1.00271992 12049
LUCH (OLYMP)            
1 40258U 14058A   18012.91963598  .00000128  00000-0  10000-3 0  9994
2 40258   0.0383 144.2060 0004860 141.4954 197.4825  1.00569811 12086
HIMAWARI-8              
1 40267U 14060A   18012.29887383 -.00000277  00000-0  00000+0 0  9996
2 40267   0.0184  53.2299 0000679 260.9401  45.8245  1.00270056 12000
IRNSS-1C                
1 40269U 14061A   18012.13004406 -.00000160  00000-0  00000-0 0  9991
2 40269   2.6421 241.0153 0021600   5.1262 355.1848  1.00275025 11827
INTELSAT 30 (IS-30)     
1 40271U 14062A   18012.63101649 -.00000152  00000-0  00000+0 0  9997
2 40271   0.0165  47.5875 0002247  74.5783 121.9951  1.00271317 11904
ARSAT 1                 
1 40272U 14062B   18012.84160787 -.00000260  00000-0  00000-0 0  9990
2 40272   0.0451 246.3488 0001300  60.3242  36.7532  1.00270843 12030
EXPRESS-AM6             
1 40277U 14064A   18012.64652446  .00000097  00000-0  00000-0 0  9990
2 40277   0.0076 245.9882 0000529 200.5027 311.3212  1.00275294 10728
GSAT-16                 
1 40332U 14078A   18011.53896401  .00000082  00000-0  00000-0 0  9999
2 40332   0.0622  99.2286 0003173 335.2811 285.5078  1.00273253 11265
DIRECTV 14              
1 40333U 14078B   18013.43379345 -.00000125  00000-0  00000+0 0  9992
2 40333   0.0151 326.3217 0000318 170.9218  32.5286  1.00272401 11393
YAMAL 401               
1 40345U 14082A   18012.75184943 -.00000229  00000-0  00000-0 0  9998
2 40345   0.0541 142.1120 0000884 207.8531 122.7952  1.00270200 11557
ASTRA 2G                
1 40364U 14089A   18012.61046925  .00000149  00000-0  00000-0 0  9998
2 40364   0.0336 337.4604 0002315  48.7865 333.7478  1.00272791 11115
